start=new Date('2022-05-01T00:00:00.000Z').valueOf();
sats=[{"RCS_SIZE":"LARGE","BSTAR":"-0.00001693300000","TLE_LINE2":"2 47775  53.0552  67.4881 0001584  63.2189 296.8962 15.06390405 65256","SEMIMAJOR_AXIS":"6925.378","MEAN_MOTION_DOT":"-0.00000534","PERIAPSIS":"546.146","MEAN_MOTION":"15.06390405","TIME_SYSTEM":"UTC","DECAY_DATE":null,"OBJECT_ID":"2021-017BF","NORAD_CAT_ID":"47775","APOAPSIS":"548.340","PERIOD":"95.593","ELEMENT_SET_NO":"999","RA_OF_ASC_NODE":"67.4881","GP_ID":"202355390","TLE_LINE1":"1 47775U 21017BF  22120.55053805 -.00000534  00000-0 -16933-4 0  9999","ARG_OF_PERICENTER":"63.2189","CLASSIFICATION_TYPE":"U","COUNTRY_CODE":"US","OBJECT_TYPE":"PAYLOAD","MEAN_ANOMALY":"296.8962","MEAN_ELEMENT_THEORY":"SGP4","REV_AT_EPOCH":"6525","EPOCH":"2022-04-30T13:12:46.487520","SITE":"AFETR","REF_FRAME":"TEME","ECCENTRICITY":"0.00015840","OBJECT_NAME":"STARLINK-2198","EPHEMERIS_TYPE":"0","CENTER_NAME":"EARTH","INCLINATION":"53.0552","LAUNCH_DATE":"2021-03-04","FILE":"3422880","MEAN_MOTION_DDOT":"0.0000000000000"},{"TLE_LINE1":"1 47776U 21017BG  22120.84264813  .00000310  00000-0  39723-4 0  9997","PERIOD":"95.593","ELEMENT_SET_NO":"999","GP_ID":"202390503","RA_OF_ASC_NODE":"56.1779","NORAD_CAT_ID":"47776","APOAPSIS":"548.451","OBJECT_ID":"2021-017BG","PERIAPSIS":"546.040","TIME_SYSTEM":"UTC","DECAY_DATE":null,"MEAN_MOTION":"15.06389619","MEAN_MOTION_DOT":"0.00000310","SEMIMAJOR_AXIS":"6925.380","BSTAR":"0.00003972300000","TLE_LINE2":"2 47776  53.0551  56.1779 0001741  47.1482 312.9653 15.06389619 65408","RCS_SIZE":"LARGE","LAUNCH_DATE":"2021-03-04","FILE":"3423346","MEAN_MOTION_DDOT":"0.0000000000000","INCLINATION":"53.0551","CENTER_NAME":"EARTH","EPHEMERIS_TYPE":"0","ECCENTRICITY":"0.00017410","OBJECT_NAME":"STARLINK-2209","SITE":"AFETR","REF_FRAME":"TEME","REV_AT_EPOCH":"6540","EPOCH":"2022-04-30T20:13:24.798432","MEAN_ANOMALY":"312.9653","OBJECT_TYPE":"PAYLOAD","MEAN_ELEMENT_THEORY":"SGP4","COUNTRY_CODE":"US","ARG_OF_PERICENTER":"47.1482","CLASSIFICATION_TYPE":"U"},{"ECCENTRICITY":"0.00018130","OBJECT_NAME":"STARLINK-2210","SITE":"AFETR","REF_FRAME":"TEME","FILE":"3423086","LAUNCH_DATE":"2021-03-04","MEAN_MOTION_DDOT":"0.0000000000000","CENTER_NAME":"EARTH","EPHEMERIS_TYPE":"0","INCLINATION":"53.0562","COUNTRY_CODE":"US","OBJECT_TYPE":"PAYLOAD","MEAN_ELEMENT_THEORY":"SGP4","MEAN_ANOMALY":"313.8983","ARG_OF_PERICENTER":"46.2156","CLASSIFICATION_TYPE":"U","REV_AT_EPOCH":"6470","EPOCH":"2022-04-30T12:21:01.509120","NORAD_CAT_ID":"47777","APOAPSIS":"548.488","OBJECT_ID":"2021-017BH","TLE_LINE1":"1 47777U 21017BH  22120.51460080 -.00001945  00000-0 -11174-3 0  9992","ELEMENT_SET_NO":"999","PERIOD":"95.593","RA_OF_ASC_NODE":"57.6609","GP_ID":"202363537","RCS_SIZE":"LARGE","BSTAR":"-0.00011174000000","TLE_LINE2":"2 47777  53.0562  57.6609 0001813  46.2156 313.8983 15.06393928 64703","PERIAPSIS":"545.977","MEAN_MOTION":"15.06393928","TIME_SYSTEM":"UTC","DECAY_DATE":null,"MEAN_MOTION_DOT":"-0.00001945","SEMIMAJOR_AXIS":"6925.367"},{"TLE_LINE1":"1 47778U 21017BJ  22120.54777196 -.00000976  00000-0 -46659-4 0  9995","PERIOD":"95.592","ELEMENT_SET_NO":"999","RA_OF_ASC_NODE":"57.4976","GP_ID":"202363955","NORAD_CAT_ID":"47778","APOAPSIS":"548.308","OBJECT_ID":"2021-017BJ","PERIAPSIS":"546.132","MEAN_MOTION":"15.06397960","DECAY_DATE":null,"TIME_SYSTEM":"UTC","SEMIMAJOR_AXIS":"6925.355","MEAN_MOTION_DOT":"-0.00000976","RCS_SIZE":"LARGE","TLE_LINE2":"2 47778  53.0566  57.4976 0001571  58.4305 301.6837 15.06397960 64719","BSTAR":"-0.00004665900000","LAUNCH_DATE":"2021-03-04","FILE":"3423088","MEAN_MOTION_DDOT":"0.0000000000000","CENTER_NAME":"EARTH","EPHEMERIS_TYPE":"0","INCLINATION":"53.0566","OBJECT_NAME":"STARLINK-2211","ECCENTRICITY":"0.00015710","SITE":"AFETR","REF_FRAME":"TEME","REV_AT_EPOCH":"6471","EPOCH":"2022-04-30T13:08:47.497344","COUNTRY_CODE":"US","MEAN_ANOMALY":"301.6837","OBJECT_TYPE":"PAYLOAD","MEAN_ELEMENT_THEORY":"SGP4","ARG_OF_PERICENTER":"58.4305","CLASSIFICATION_TYPE":"U"},{"ELEMENT_SET_NO":"999","PERIOD":"95.027","RA_OF_ASC_NODE":"48.7995","GP_ID":"202327867","TLE_LINE1":"1 47779U 21017BK  22120.51527268  .00005339  00000-0  29563-3 0  9996","OBJECT_ID":"2021-017BK","NORAD_CAT_ID":"47779","APOAPSIS":"520.925","SEMIMAJOR_AXIS":"6898.031","MEAN_MOTION_DOT":"0.00005339","PERIAPSIS":"518.866","MEAN_MOTION":"15.15357459","TIME_SYSTEM":"UTC","DECAY_DATE":null,"RCS_SIZE":"LARGE","TLE_LINE2":"2 47779  53.0556  48.7995 0001492 101.0063 259.1098 15.15357459 64839","BSTAR":"0.00029563000000","CENTER_NAME":"EARTH","EPHEMERIS_TYPE":"0","INCLINATION":"53.0556","FILE":"3422692","LAUNCH_DATE":"2021-03-04","MEAN_MOTION_DDOT":"0.0000000000000","SITE":"AFETR","REF_FRAME":"TEME","OBJECT_NAME":"STARLINK-2212","ECCENTRICITY":"0.00014920","REV_AT_EPOCH":"6483","EPOCH":"2022-04-30T12:21:59.559552","ARG_OF_PERICENTER":"101.0063","CLASSIFICATION_TYPE":"U","COUNTRY_CODE":"US","MEAN_ELEMENT_THEORY":"SGP4","OBJECT_TYPE":"PAYLOAD","MEAN_ANOMALY":"259.1098"},{"ELEMENT_SET_NO":"999","PERIOD":"95.593","RA_OF_ASC_NODE":"58.8887","GP_ID":"202355635","TLE_LINE1":"1 47780U 21017BL  22120.24184063 -.00002307  00000-0 -13605-3 0  9994","OBJECT_ID":"2021-017BL","NORAD_CAT_ID":"47780","APOAPSIS":"548.631","SEMIMAJOR_AXIS":"6925.372","MEAN_MOTION_DOT":"-0.00002307","PERIAPSIS":"545.843","MEAN_MOTION":"15.06392297","DECAY_DATE":null,"TIME_SYSTEM":"UTC","RCS_SIZE":"LARGE","BSTAR":"-0.00013605000000","TLE_LINE2":"2 47780  53.0498  58.8887 0002013  51.6162 308.5008 15.06392297 65344","EPHEMERIS_TYPE":"0","CENTER_NAME":"EARTH","INCLINATION":"53.0498","FILE":"3422880","LAUNCH_DATE":"2021-03-04","MEAN_MOTION_DDOT":"0.0000000000000","SITE":"AFETR","REF_FRAME":"TEME","ECCENTRICITY":"0.00020130","OBJECT_NAME":"STARLINK-2213","REV_AT_EPOCH":"6534","EPOCH":"2022-04-30T05:48:15.030432","CLASSIFICATION_TYPE":"U","ARG_OF_PERICENTER":"51.6162","COUNTRY_CODE":"US","MEAN_ANOMALY":"308.5008","OBJECT_TYPE":"PAYLOAD","MEAN_ELEMENT_THEORY":"SGP4"},{"OBJECT_ID":"2021-017BM","NORAD_CAT_ID":"47781","APOAPSIS":"548.368","ELEMENT_SET_NO":"999","PERIOD":"95.593","GP_ID":"202363590","RA_OF_ASC_NODE":"57.5357","TLE_LINE1":"1 47781U 21017BM  22120.54040263 -.00001954  00000-0 -11230-3 0  9990","BSTAR":"-0.00011230000000","TLE_LINE2":"2 47781  53.0544  57.5357 0001637  59.9046 300.2105 15.06393284 64701","RCS_SIZE":"LARGE","SEMIMAJOR_AXIS":"6925.369","MEAN_MOTION_DOT":"-0.00001954","PERIAPSIS":"546.100","DECAY_DATE":null,"TIME_SYSTEM":"UTC","MEAN_MOTION":"15.06393284","SITE":"AFETR","REF_FRAME":"TEME","OBJECT_NAME":"STARLINK-2223","ECCENTRICITY":"0.00016370","INCLINATION":"53.0544","EPHEMERIS_TYPE":"0","CENTER_NAME":"EARTH","FILE":"3423089","LAUNCH_DATE":"2021-03-04","MEAN_MOTION_DDOT":"0.0000000000000","CLASSIFICATION_TYPE":"U","ARG_OF_PERICENTER":"59.9046","OBJECT_TYPE":"PAYLOAD","MEAN_ANOMALY":"300.2105","MEAN_ELEMENT_THEORY":"SGP4","COUNTRY_CODE":"US","REV_AT_EPOCH":"6470","EPOCH":"2022-04-30T12:58:10.787232"},{"TLE_LINE2":"2 47787  53.0530  95.9615 0002079  48.9632 311.1536 15.06398018 64254","BSTAR":"-0.00009801400000","RCS_SIZE":"LARGE","MEAN_MOTION_DOT":"-0.00001741","SEMIMAJOR_AXIS":"6925.355","DECAY_DATE":null,"TIME_SYSTEM":"UTC","MEAN_MOTION":"15.06398018","PERIAPSIS":"545.780","OBJECT_ID":"2021-018A","APOAPSIS":"548.659","NORAD_CAT_ID":"47787","GP_ID":"202392005","RA_OF_ASC_NODE":"95.9615","PERIOD":"95.592","ELEMENT_SET_NO":"999","TLE_LINE1":"1 47787U 21018A   22120.89057080 -.00001741  00000-0 -98014-4 0  9990","ARG_OF_PERICENTER":"48.9632","CLASSIFICATION_TYPE":"U","MEAN_ANOMALY":"311.1536","OBJECT_TYPE":"PAYLOAD","MEAN_ELEMENT_THEORY":"SGP4","COUNTRY_CODE":"US","EPOCH":"2022-04-30T21:22:25.317120","REV_AT_EPOCH":"6425","REF_FRAME":"TEME","SITE":"AFETR","OBJECT_NAME":"STARLINK-2257","ECCENTRICITY":"0.00020790","INCLINATION":"53.0530","EPHEMERIS_TYPE":"0","CENTER_NAME":"EARTH","MEAN_MOTION_DDOT":"0.0000000000000","FILE":"3423346","LAUNCH_DATE":"2021-03-11"},{"SEMIMAJOR_AXIS":"6925.370","MEAN_MOTION_DOT":"-0.00001749","PERIAPSIS":"546.097","MEAN_MOTION":"15.06392915","DECAY_DATE":null,"TIME_SYSTEM":"UTC","RCS_SIZE":"LARGE","TLE_LINE2":"2 47788  53.0575  71.2169 0001644  44.5917 315.5204 15.06392915 64261","BSTAR":"-0.00009858300000","ELEMENT_SET_NO":"999","PERIOD":"95.593","RA_OF_ASC_NODE":"71.2169","GP_ID":"202361945","TLE_LINE1":"1 47788U 21018B   22120.83573352 -.00001749  00000-0 -98583-4 0  9999","OBJECT_ID":"2021-018B","NORAD_CAT_ID":"47788","APOAPSIS":"548.374","REV_AT_EPOCH":"6426","EPOCH":"2022-04-30T20:03:27.376128","ARG_OF_PERICENTER":"44.5917","CLASSIFICATION_TYPE":"U","COUNTRY_CODE":"US","MEAN_ANOMALY":"315.5204","OBJECT_TYPE":"PAYLOAD","MEAN_ELEMENT_THEORY":"SGP4","EPHEMERIS_TYPE":"0","CENTER_NAME":"EARTH","INCLINATION":"53.0575","FILE":"3423024","LAUNCH_DATE":"2021-03-11","MEAN_MOTION_DDOT":"0.0000000000000","SITE":"AFETR","REF_FRAME":"TEME","ECCENTRICITY":"0.00016440","OBJECT_NAME":"STARLINK-2314"},{"BSTAR":"-0.00009895500000","TLE_LINE2":"2 47789  53.0569  76.0023 0001823  56.6266 303.4897 15.06397647 64549","RCS_SIZE":"LARGE","PERIAPSIS":"545.958","TIME_SYSTEM":"UTC","DECAY_DATE":null,"MEAN_MOTION":"15.06397647","MEAN_MOTION_DOT":"-0.00001755","SEMIMAJOR_AXIS":"6925.356","NORAD_CAT_ID":"47789","APOAPSIS":"548.483","OBJECT_ID":"2021-018C","TLE_LINE1":"1 47789U 21018C   22120.88503536 -.00001755  00000-0 -98955-4 0  9992","ELEMENT_SET_NO":"999","PERIOD":"95.592","GP_ID":"202390504","RA_OF_ASC_NODE":"76.0023","MEAN_ELEMENT_THEORY":"SGP4","OBJECT_TYPE":"PAYLOAD","MEAN_ANOMALY":"303.4897","COUNTRY_CODE":"US","ARG_OF_PERICENTER":"56.6266","CLASSIFICATION_TYPE":"U","REV_AT_EPOCH":"6454","EPOCH":"2022-04-30T21:14:27.055104","OBJECT_NAME":"STARLINK-2315","ECCENTRICITY":"0.00018230","SITE":"AFETR","REF_FRAME":"TEME","FILE":"3423346","LAUNCH_DATE":"2021-03-11","MEAN_MOTION_DDOT":"0.0000000000000","INCLINATION":"53.0569","CENTER_NAME":"EARTH","EPHEMERIS_TYPE":"0"}];
